HXMT (HUIYAN)           
1 42758U 17034A   26113.52873932  .00002165  00000+0  11514-3 0  9991
2 42758  43.0135 127.2746 0031077 160.9067 199.2953 15.17974358489357
SAOCOM 1A               
1 43641U 18076A   26113.58752580 -.00000353  00000+0 -37753-4 0  9994
2 43641  97.8902 301.1253 0001507  88.3820 271.7565 14.82149368408014
H-2A R/B                
1 43682U 18084L   26113.56393259  .00014350  00000+0  32349-3 0  9995
2 43682  98.8660 340.5970 0023315 224.7296 135.2068 15.43124333412692
CSS (TIANHE)            
1 48274U 21035A   26113.54209464  .00023003  00000+0  25056-3 0  9991
2 48274  41.4673 294.8032 0006745 259.8887 100.1192 15.62838201284621
COSMOS 2550             
1 48865U 21056A   26113.64096954  .00003106  00000+0  10022-3 0  9998
2 48865  67.1426 264.9049 0008334 269.7569  90.2630 15.33826686270350
CZ-2C R/B               
1 52794U 22058K   26113.40374592  .00034702  00000+0  45027-3 0  9997
2 52794  50.1865  87.6862 0039262  32.2680 328.0682 15.57531532217099
CZ-2C R/B               
1 54039U 22132E   26113.47901697  .00036471  00000+0  35679-3 0  9990
2 54039  97.2947 118.3015 0012864 282.7998  77.1825 15.65957800197379
GSLV R/B                
1 54149U 22138AN  26113.10876506  .00001770  00000+0  15073-3 0  9998
2 54149  87.3820 151.4802 0021013 357.5134   2.5990 14.97013854190578
XRISM                   
1 57800U 23137A   26113.07605936  .00004028  00000+0  22345-3 0  9997
2 57800  31.0034 356.4570 0007496 127.5173 232.6148 15.11973396144511
ACS3                    
1 59588U 24077B   26112.74691476  .00004794  00000+0  37433-2 0  9996
2 59588  97.1850  43.9630 0066905 350.3018   9.6851 13.91470077100322
HTV-X1                  
1 66174U 25241A   26112.99220554  .00004413  00000+0  14900-3 0  9994
2 66174  51.6353 219.4042 0007821 344.1053  15.9682 15.32728944 27734
SZ-21 MODULE            
1 66515U 25246C   26112.76488071  .00029535  00000+0  22144-3 0  9994
2 66515  41.4735 291.3260 0004255 310.1381  49.9089 15.71947588 25006
