[{"OBJECT_NAME":"HXMT (HUIYAN)","OBJECT_ID":"2017-034A","EPOCH":"2026-04-23T12:41:23.077248","MEAN_MOTION":15.17974358,"ECCENTRICITY":0.00310779,"INCLINATION":43.0135,"RA_OF_ASC_NODE":127.2746,"ARG_OF_PERICENTER":160.9067,"MEAN_ANOMALY":199.2953,"EPHEMERIS_TYPE":0,"CLASSIFICATION_TYPE":"U","NORAD_CAT_ID":42758,"ELEMENT_SET_NO":999,"REV_AT_EPOCH":48935,"BSTAR":0.00011514051,"MEAN_MOTION_DOT":2.165e-5,"MEAN_MOTION_DDOT":0},{"OBJECT_NAME":"SAOCOM 1A","OBJECT_ID":"2018-076A","EPOCH":"2026-04-23T14:06:02.229120","MEAN_MOTION":14.82149368,"ECCENTRICITY":0.00015071,"INCLINATION":97.8902,"RA_OF_ASC_NODE":301.1253,"ARG_OF_PERICENTER":88.382,"MEAN_ANOMALY":271.7565,"EPHEMERIS_TYPE":0,"CLASSIFICATION_TYPE":"U","NORAD_CAT_ID":43641,"ELEMENT_SET_NO":999,"REV_AT_EPOCH":40801,"BSTAR":-3.7752658e-5,"MEAN_MOTION_DOT":-3.53e-6,"MEAN_MOTION_DDOT":0},{"OBJECT_NAME":"H-2A R/B","OBJECT_ID":"2018-084L","EPOCH":"2026-04-23T13:32:03.775776","MEAN_MOTION":15.43124333,"ECCENTRICITY":0.0023315,"INCLINATION":98.866,"RA_OF_ASC_NODE":340.597,"ARG_OF_PERICENTER":224.7296,"MEAN_ANOMALY":135.2068,"EPHEMERIS_TYPE":0,"CLASSIFICATION_TYPE":"U","NORAD_CAT_ID":43682,"ELEMENT_SET_NO":999,"REV_AT_EPOCH":41269,"BSTAR":0.00032348791,"MEAN_MOTION_DOT":0.0001435,"MEAN_MOTION_DDOT":0},{"OBJECT_NAME":"CSS (TIANHE)","OBJECT_ID":"2021-035A","EPOCH":"2026-04-23T13:00:36.976896","MEAN_MOTION":15.62838201,"ECCENTRICITY":0.00067454,"INCLINATION":41.4673,"RA_OF_ASC_NODE":294.8032,"ARG_OF_PERICENTER":259.8887,"MEAN_ANOMALY":100.1192,"EPHEMERIS_TYPE":0,"CLASSIFICATION_TYPE":"U","NORAD_CAT_ID":48274,"ELEMENT_SET_NO":999,"REV_AT_EPOCH":28462,"BSTAR":0.00025055873,"MEAN_MOTION_DOT":0.00023003,"MEAN_MOTION_DDOT":0},{"OBJECT_NAME":"COSMOS 2550","OBJECT_ID":"2021-056A","EPOCH":"2026-04-23T15:22:59.768256","MEAN_MOTION":15.33826686,"ECCENTRICITY":0.00083348,"INCLINATION":67.1426,"RA_OF_ASC_NODE":264.9049,"ARG_OF_PERICENTER":269.7569,"MEAN_ANOMALY":90.263,"EPHEMERIS_TYPE":0,"CLASSIFICATION_TYPE":"U","NORAD_CAT_ID":48865,"ELEMENT_SET_NO":999,"REV_AT_EPOCH":27035,"BSTAR":0.00010022034,"MEAN_MOTION_DOT":3.106e-5,"MEAN_MOTION_DDOT":0},{"OBJECT_NAME":"CZ-2C R/B","OBJECT_ID":"2022-058K","EPOCH":"2026-04-23T09:41:23.647488","MEAN_MOTION":15.57531532,"ECCENTRICITY":0.00392624,"INCLINATION":50.1865,"RA_OF_ASC_NODE":87.6862,"ARG_OF_PERICENTER":32.268,"MEAN_ANOMALY":328.0682,"EPHEMERIS_TYPE":0,"CLASSIFICATION_TYPE":"U","NORAD_CAT_ID":52794,"ELEMENT_SET_NO":999,"REV_AT_EPOCH":21709,"BSTAR":0.00045027249,"MEAN_MOTION_DOT":0.00034702,"MEAN_MOTION_DDOT":0},{"OBJECT_NAME":"CZ-2C R/B","OBJECT_ID":"2022-132E","EPOCH":"2026-04-23T11:29:47.066208","MEAN_MOTION":15.659578,"ECCENTRICITY":0.00128648,"INCLINATION":97.2947,"RA_OF_ASC_NODE":118.3015,"ARG_OF_PERICENTER":282.7998,"MEAN_ANOMALY":77.1825,"EPHEMERIS_TYPE":0,"CLASSIFICATION_TYPE":"U","NORAD_CAT_ID":54039,"ELEMENT_SET_NO":999,"REV_AT_EPOCH":19737,"BSTAR":0.00035679401,"MEAN_MOTION_DOT":0.00036471,"MEAN_MOTION_DDOT":0},{"OBJECT_NAME":"GSLV R/B","OBJECT_ID":"2022-138AN","EPOCH":"2026-04-23T02:36:37.301184","MEAN_MOTION":14.97013854,"ECCENTRICITY":0.00210131,"INCLINATION":87.382,"RA_OF_ASC_NODE":151.4802,"ARG_OF_PERICENTER":357.5134,"MEAN_ANOMALY":2.599,"EPHEMERIS_TYPE":0,"CLASSIFICATION_TYPE":"U","NORAD_CAT_ID":54149,"ELEMENT_SET_NO":999,"REV_AT_EPOCH":19057,"BSTAR":0.00015072629,"MEAN_MOTION_DOT":1.77e-5,"MEAN_MOTION_DDOT":0},{"OBJECT_NAME":"XRISM","OBJECT_ID":"2023-137A","EPOCH":"2026-04-23T01:49:31.528704","MEAN_MOTION":15.11973396,"ECCENTRICITY":0.00074961,"INCLINATION":31.0034,"RA_OF_ASC_NODE":356.457,"ARG_OF_PERICENTER":127.5173,"MEAN_ANOMALY":232.6148,"EPHEMERIS_TYPE":0,"CLASSIFICATION_TYPE":"U","NORAD_CAT_ID":57800,"ELEMENT_SET_NO":999,"REV_AT_EPOCH":14451,"BSTAR":0.00022345019,"MEAN_MOTION_DOT":4.028e-5,"MEAN_MOTION_DDOT":0},{"OBJECT_NAME":"ACS3","OBJECT_ID":"2024-077B","EPOCH":"2026-04-22T17:55:33.435264","MEAN_MOTION":13.91470077,"ECCENTRICITY":0.0066905,"INCLINATION":97.185,"RA_OF_ASC_NODE":43.963,"ARG_OF_PERICENTER":350.3018,"MEAN_ANOMALY":9.6851,"EPHEMERIS_TYPE":0,"CLASSIFICATION_TYPE":"U","NORAD_CAT_ID":59588,"ELEMENT_SET_NO":999,"REV_AT_EPOCH":10032,"BSTAR":0.0037433005,"MEAN_MOTION_DOT":4.794e-5,"MEAN_MOTION_DDOT":0},{"OBJECT_NAME":"HTV-X1","OBJECT_ID":"2025-241A","EPOCH":"2026-04-22T23:48:46.558656","MEAN_MOTION":15.32728944,"ECCENTRICITY":0.00078219,"INCLINATION":51.6353,"RA_OF_ASC_NODE":219.4042,"ARG_OF_PERICENTER":344.1053,"MEAN_ANOMALY":15.9682,"EPHEMERIS_TYPE":0,"CLASSIFICATION_TYPE":"U","NORAD_CAT_ID":66174,"ELEMENT_SET_NO":999,"REV_AT_EPOCH":2773,"BSTAR":0.00014900059,"MEAN_MOTION_DOT":4.413e-5,"MEAN_MOTION_DDOT":0},{"OBJECT_NAME":"SZ-21 MODULE","OBJECT_ID":"2025-246C","EPOCH":"2026-04-22T18:21:25.693344","MEAN_MOTION":15.71947588,"ECCENTRICITY":0.00042555,"INCLINATION":41.4735,"RA_OF_ASC_NODE":291.326,"ARG_OF_PERICENTER":310.1381,"MEAN_ANOMALY":49.9089,"EPHEMERIS_TYPE":0,"CLASSIFICATION_TYPE":"U","NORAD_CAT_ID":66515,"ELEMENT_SET_NO":999,"REV_AT_EPOCH":2500,"BSTAR":0.00022143933,"MEAN_MOTION_DOT":0.00029535,"MEAN_MOTION_DDOT":0}]
